{
  "type": "FeatureCollection",
  "features": [
    {
      "type": "Feature",
      "properties": {
        "norad_id": 38755,
        "name": "SPOT 6",
        "group": "resource",
        "lat": -16.05474710744654,
        "lon": 65.86993498895554,
        "alt_km": 702.7312286161205,
        "timestamp": "2025-12-24T22:42:21.679064+00:00",
        "meta_object_name": "SPOT 6",
        "meta_object_id": "2012-047A",
        "meta_epoch": "2025-12-24T07:57:43.667424",
        "meta_mean_motion": 14.58542126,
        "meta_eccentricity": 0.00012524,
        "meta_inclination": 98.1556,
        "meta_ra_of_asc_node": 62.9019,
        "meta_arg_of_pericenter": 77.8641,
        "meta_mean_anomaly": 282.2698,
        "meta_ephemeris_type": 0,
        "meta_classification_type": "U",
        "meta_norad_cat_id": 38755,
        "meta_element_set_no": 999,
        "meta_rev_at_epoch": 70756,
        "meta_bstar": 0.00010361266,
        "meta_mean_motion_dot": 4.36e-06,
        "meta_mean_motion_ddot": 0,
        "tle_line1": "1 38755U 12047A   25358.33175541  .00000436  00000+0  10361-3 0  9990",
        "tle_line2": "2 38755  98.1556  62.9019 0001252  77.8641 282.2698 14.58542126707564"
      },
      "geometry": {
        "type": "Point",
        "coordinates": [
          65.86993498895554,
          -16.05474710744654
        ]
      }
    },
    {
      "type": "Feature",
      "properties": {
        "norad_id": 39019,
        "name": "PLEIADES 1B",
        "group": "resource",
        "lat": -61.2836900239586,
        "lon": -123.81350382023983,
        "alt_km": 705.7234008338355,
        "timestamp": "2025-12-24T22:42:21.679075+00:00",
        "meta_object_name": "PLEIADES 1B",
        "meta_object_id": "2012-068A",
        "meta_epoch": "2025-12-24T06:46:49.994112",
        "meta_mean_motion": 14.58563037,
        "meta_eccentricity": 0.00011432,
        "meta_inclination": 98.1782,
        "meta_ra_of_asc_node": 70.7517,
        "meta_arg_of_pericenter": 86.4343,
        "meta_mean_anomaly": 273.6987,
        "meta_ephemeris_type": 0,
        "meta_classification_type": "U",
        "meta_norad_cat_id": 39019,
        "meta_element_set_no": 999,
        "meta_rev_at_epoch": 69535,
        "meta_bstar": 0.0001049665,
        "meta_mean_motion_dot": 4.43e-06,
        "meta_mean_motion_ddot": 0,
        "tle_line1": "1 39019U 12068A   25358.28252308  .00000443  00000+0  10497-3 0  9996",
        "tle_line2": "2 39019  98.1782  70.7517 0001143  86.4343 273.6987 14.58563037695355"
      },
      "geometry": {
        "type": "Point",
        "coordinates": [
          -123.81350382023983,
          -61.2836900239586
        ]
      }
    },
    {
      "type": "Feature",
      "properties": {
        "norad_id": 39030,
        "name": "GOKTURK 2",
        "group": "resource",
        "lat": 66.93193573727089,
        "lon": 38.49229952278925,
        "alt_km": 636.6805476994341,
        "timestamp": "2025-12-24T22:42:21.679085+00:00",
        "meta_object_name": "GOKTURK 2",
        "meta_object_id": "2012-073A",
        "meta_epoch": "2025-12-24T07:33:04.618656",
        "meta_mean_motion": 14.75304957,
        "meta_eccentricity": 0.0001415,
        "meta_inclination": 97.6883,
        "meta_ra_of_asc_node": 199.3986,
        "meta_arg_of_pericenter": 108.1975,
        "meta_mean_anomaly": 251.939,
        "meta_ephemeris_type": 0,
        "meta_classification_type": "U",
        "meta_norad_cat_id": 39030,
        "meta_element_set_no": 999,
        "meta_rev_at_epoch": 69872,
        "meta_bstar": 5.7201107e-05,
        "meta_mean_motion_dot": 3.4e-06,
        "meta_mean_motion_ddot": 0,
        "tle_line1": "1 39030U 12073A   25358.31463679  .00000340  00000+0  57201-4 0  9995",
        "tle_line2": "2 39030  97.6883 199.3986 0001415 108.1975 251.9390 14.75304957698721"
      },
      "geometry": {
        "type": "Point",
        "coordinates": [
          38.49229952278925,
          66.93193573727089
        ]
      }
    },
    {
      "type": "Feature",
      "properties": {
        "norad_id": 39084,
        "name": "LANDSAT 8",
        "group": "resource",
        "lat": -11.056038913859888,
        "lon": 68.45410681411676,
        "alt_km": 706.9600147985848,
        "timestamp": "2025-12-24T22:42:21.679095+00:00",
        "meta_object_name": "LANDSAT 8",
        "meta_object_id": "2013-008A",
        "meta_epoch": "2025-12-24T04:37:42.378240",
        "meta_mean_motion": 14.57113778,
        "meta_eccentricity": 0.00010596,
        "meta_inclination": 98.2057,
        "meta_ra_of_asc_node": 66.0965,
        "meta_arg_of_pericenter": 92.9713,
        "meta_mean_anomaly": 267.1606,
        "meta_ephemeris_type": 0,
        "meta_classification_type": "U",
        "meta_norad_cat_id": 39084,
        "meta_element_set_no": 999,
        "meta_rev_at_epoch": 67241,
        "meta_bstar": 0.0001025954,
        "meta_mean_motion_dot": 4.17e-06,
        "meta_mean_motion_ddot": 0,
        "tle_line1": "1 39084U 13008A   25358.19285160  .00000417  00000+0  10260-3 0  9994",
        "tle_line2": "2 39084  98.2057  66.0965 0001059  92.9713 267.1606 14.57113778672417"
      },
      "geometry": {
        "type": "Point",
        "coordinates": [
          68.45410681411676,
          -11.056038913859888
        ]
      }
    },
    {
      "type": "Feature",
      "properties": {
        "norad_id": 39086,
        "name": "SARAL",
        "group": "resource",
        "lat": -13.732054774833848,
        "lon": -175.17622613946523,
        "alt_km": 787.3872764504758,
        "timestamp": "2025-12-24T22:42:21.679105+00:00",
        "meta_object_name": "SARAL",
        "meta_object_id": "2013-009A",
        "meta_epoch": "2025-12-24T07:41:10.552128",
        "meta_mean_motion": 14.32760929,
        "meta_eccentricity": 0.00029588,
        "meta_inclination": 98.5503,
        "meta_ra_of_asc_node": 182.0995,
        "meta_arg_of_pericenter": 87.0776,
        "meta_mean_anomaly": 273.0747,
        "meta_ephemeris_type": 0,
        "meta_classification_type": "U",
        "meta_norad_cat_id": 39086,
        "meta_element_set_no": 999,
        "meta_rev_at_epoch": 67056,
        "meta_bstar": 6.2292308e-05,
        "meta_mean_motion_dot": 1.26e-06,
        "meta_mean_motion_ddot": 0,
        "tle_line1": "1 39086U 13009A   25358.32026102  .00000126  00000+0  62292-4 0  9991",
        "tle_line2": "2 39086  98.5503 182.0995 0002958  87.0776 273.0747 14.32760929670568"
      },
      "geometry": {
        "type": "Point",
        "coordinates": [
          -175.17622613946523,
          -13.732054774833848
        ]
      }
    },
    {
      "type": "Feature",
      "properties": {
        "norad_id": 39150,
        "name": "GAOFEN-1",
        "group": "resource",
        "lat": -62.63009221538156,
        "lon": -126.23370954641784,
        "alt_km": 657.1913434744802,
        "timestamp": "2025-12-24T22:42:21.679116+00:00",
        "meta_object_name": "GAOFEN-1",
        "meta_object_id": "2013-018A",
        "meta_epoch": "2025-12-24T06:58:09.130944",
        "meta_mean_motion": 14.76498752,
        "meta_eccentricity": 0.00185076,
        "meta_inclination": 97.9313,
        "meta_ra_of_asc_node": 68.7449,
        "meta_arg_of_pericenter": 108.0306,
        "meta_mean_anomaly": 252.2923,
        "meta_ephemeris_type": 0,
        "meta_classification_type": "U",
        "meta_norad_cat_id": 39150,
        "meta_element_set_no": 999,
        "meta_rev_at_epoch": 68243,
        "meta_bstar": 0.00012344441,
        "meta_mean_motion_dot": 8.11e-06,
        "meta_mean_motion_ddot": 0,
        "tle_line1": "1 39150U 13018A   25358.29038346  .00000811  00000+0  12344-3 0  9995",
        "tle_line2": "2 39150  97.9313  68.7449 0018507 108.0306 252.2923 14.76498752682430"
      },
      "geometry": {
        "type": "Point",
        "coordinates": [
          -126.23370954641784,
          -62.63009221538156
        ]
      }
    },
    {
      "type": "Feature",
      "properties": {
        "norad_id": 39160,
        "name": "VNREDSAT 1",
        "group": "resource",
        "lat": 22.041588314715998,
        "lon": -122.9701584885259,
        "alt_km": 676.8378959679003,
        "timestamp": "2025-12-24T22:42:21.679126+00:00",
        "meta_object_name": "VNREDSAT 1",
        "meta_object_id": "2013-021B",
        "meta_epoch": "2025-12-24T07:14:07.584288",
        "meta_mean_motion": 14.64939176,
        "meta_eccentricity": 0.00011674,
        "meta_inclination": 97.9354,
        "meta_ra_of_asc_node": 53.1706,
        "meta_arg_of_pericenter": 82.5259,
        "meta_mean_anomaly": 277.6077,
        "meta_ephemeris_type": 0,
        "meta_classification_type": "U",
        "meta_norad_cat_id": 39160,
        "meta_element_set_no": 999,
        "meta_rev_at_epoch": 67468,
        "meta_bstar": 0.00013409684,
        "meta_mean_motion_dot": 6.72e-06,
        "meta_mean_motion_ddot": 0,
        "tle_line1": "1 39160U 13021B   25358.30147667  .00000672  00000+0  13410-3 0  9999",
        "tle_line2": "2 39160  97.9354  53.1706 0001167  82.5259 277.6077 14.64939176674683"
      },
      "geometry": {
        "type": "Point",
        "coordinates": [
          -122.9701584885259,
          22.041588314715998
        ]
      }
    }
  ]
}